[{"OBJECT_ID":"1968-050E","OBJECT_NAME":"OPS 9345 (IDSCS 24)","NORAD_CAT_ID":"3288","OBJECT_TYPE":"PAYLOAD","PERIOD":"1339.813","INCLINATION":"1.0931","APOGEE":"34028.647","PERIGEE":"33731.870","ECCENTRICITY":"0.0036859","MEAN_MOTION":"1.07477632","TLE_LINE1":"1  3288U 68050E   16238.43278596 -.00000072 +00000-0 +00000-0 0  9994","TLE_LINE2":"2  3288 001.0931 004.0549 0036859 118.8344 164.3357 01.07477632100736","LAUNCH_DATE":"1968-06-13","LAUNCH_SITE":"AIR FORCE EASTERN TEST RANGE","OWNER":"UNITED STATES OF AMERICA","ORBIT_TYPE":"Unclassified","OPERATIONAL_STATUS":"Nonoperational","satInfo":{"lng":126.6587183993752,"lat":0.8286205337135153,"elevation":-8.193018641341718,"azimuth":188.3412816006248,"range":40540.636043235485,"height":33752.917446752035,"velocity":3.156600558888216},"x":271,"y":202,"dx":-19,"dy":-25},{"OBJECT_ID":"1968-050F","OBJECT_NAME":"OPS 9346 (IDSCS 25)","NORAD_CAT_ID":"3289","OBJECT_TYPE":"PAYLOAD","PERIOD":"1342.186","INCLINATION":"1.0719","APOGEE":"34121.693","PERIGEE":"33733.846","ECCENTRICITY":"0.0048113","MEAN_MOTION":"1.07287654","TLE_LINE1":"1 03289U 68050F   16238.14953707 -.00000109  00000-0  00000+0 0  9997","TLE_LINE2":"2 03289   1.0719   0.8622 0048113 119.6066 210.9567  1.07287654100805","LAUNCH_DATE":"1968-06-13","LAUNCH_SITE":"AIR FORCE EASTERN TEST RANGE","OWNER":"UNITED STATES OF AMERICA","ORBIT_TYPE":"Unclassified","OPERATIONAL_STATUS":"Nonoperational","satInfo":{"lng":-149.0465668552447,"lat":-0.6242711510129582,"elevation":-9.59261912476378,"azimuth":104.04656685524466,"range":40774.44545028681,"height":33828.5642492886,"velocity":3.1525310084283222},"x":-174,"y":290,"dx":-27,"dy":16},{"OBJECT_ID":"1968-050G","OBJECT_NAME":"OPS 9347 (IDSCS 26)","NORAD_CAT_ID":"3290","OBJECT_TYPE":"PAYLOAD","PERIOD":"1345.357","INCLINATION":"1.0961","APOGEE":"34249.760","PERIGEE":"33732.694","ECCENTRICITY":"0.0064042","MEAN_MOTION":"1.07034781","TLE_LINE1":"1 03290U 68050G   16238.42333675 -.00000070  00000-0  00000+0 0  9993","TLE_LINE2":"2 03290   1.0961 352.8848 0064042 124.9404 181.6734  1.07034781100564","LAUNCH_DATE":"1968-06-13","LAUNCH_SITE":"AIR FORCE EASTERN TEST RANGE","OWNER":"UNITED STATES OF AMERICA","ORBIT_TYPE":"Unclassified","OPERATIONAL_STATUS":"Nonoperational","satInfo":{"lng":107.91043582655132,"lat":0.5694464298151051,"elevation":-8.435255436219217,"azimuth":207.08956417344868,"range":40617.2677931428,"height":33801.72596353611,"velocity":3.1570837843515642},"x":322,"y":104,"dx":-10,"dy":-30},{"OBJECT_ID":"1968-050H","OBJECT_NAME":"OPS 9348 (IDSCS 27)","NORAD_CAT_ID":"3291","OBJECT_TYPE":"PAYLOAD","PERIOD":"1348.720","INCLINATION":"1.0998","APOGEE":"34382.623","PERIGEE":"33734.351","ECCENTRICITY":"0.0080159","MEAN_MOTION":"1.0676784","TLE_LINE1":"1 03291U 68050H   16238.73915709 -.00000145  00000-0  00000+0 0  9995","TLE_LINE2":"2 03291   1.0998 347.5106 0080159 128.2537 220.9759  1.06767840187774","LAUNCH_DATE":"1968-06-13","LAUNCH_SITE":"AIR FORCE EASTERN TEST RANGE","OWNER":"UNITED STATES OF AMERICA","ORBIT_TYPE":"Unclassified","OPERATIONAL_STATUS":"Nonoperational","satInfo":{"lng":-7.371067834016519,"lat":0.13415410350685208,"elevation":-8.74224206862127,"azimuth":322.3710678340165,"range":41199.39125118311,"height":34342.71531272574,"velocity":3.1177148754341824},"x":-44,"y":-341,"dx":31,"dy":4},{"OBJECT_ID":"1968-050J","OBJECT_NAME":"TITAN 3C TRANSTAGE R/B","NORAD_CAT_ID":"3292","OBJECT_TYPE":"ROCKET BODY","PERIOD":"1363.687","INCLINATION":"1.0834","APOGEE":"35016.659","PERIGEE":"33697.522","ECCENTRICITY":"0.0161916","MEAN_MOTION":"1.05596023","TLE_LINE1":"1 03292U 68050J   16238.29399822 -.00000216  00000-0  00000+0 0  9998","TLE_LINE2":"2 03292   1.0834  22.9728 0161916 322.9853 342.0744  1.05596023 91285","LAUNCH_DATE":"1968-06-13","LAUNCH_SITE":"AIR FORCE EASTERN TEST RANGE","OWNER":"UNITED STATES OF AMERICA","ORBIT_TYPE":"Unclassified","OPERATIONAL_STATUS":"N/A, derelict rocket body","satInfo":{"lng":-20.645441896479184,"lat":-1.0524064724646403,"elevation":-10.001951606597649,"azimuth":335.64544189647916,"range":40852.894033935576,"height":33860.648644742214,"velocity":3.1665364132565466},"x":-119,"y":-317,"dx":30,"dy":11},{"OBJECT_ID":"1983-026C","OBJECT_NAME":"IUS R/B(2)","NORAD_CAT_ID":"13970","OBJECT_TYPE":"ROCKET BODY","PERIOD":"1089.613","INCLINATION":"1.6641","APOGEE":"35236.717","PERIGEE":"22158.744","ECCENTRICITY":"0.1864241","MEAN_MOTION":"1.32156997","TLE_LINE1":"1 13970U 83026C   16239.42938936 -.00000151  00000-0  00000+0 0  9991","TLE_LINE2":"2 13970   1.6641 344.7999 1864241 156.0560 103.9895  1.32156997161202","LAUNCH_DATE":"1983-04-04","LAUNCH_SITE":"AIR FORCE EASTERN TEST RANGE","OWNER":"UNITED STATES OF AMERICA","ORBIT_TYPE":"Unclassified","OPERATIONAL_STATUS":"N/A, derelict rocket body","satInfo":{"lng":-30.561729967217797,"lat":0.12487783506630146,"elevation":-8.978511802070487,"azimuth":345.56172996721784,"range":40180.39187113492,"height":33310.01629492353,"velocity":2.953483052430037},"x":-169,"y":-287,"dx":25,"dy":15},{"OBJECT_ID":"1995-073A","OBJECT_NAME":"ECHOSTAR 1","NORAD_CAT_ID":"23754","OBJECT_TYPE":"PAYLOAD","PERIOD":"1436.120","INCLINATION":"0.1914","APOGEE":"35800.679","PERIGEE":"35773.457","ECCENTRICITY":"0.0003228","MEAN_MOTION":"1.00270103","TLE_LINE1":"1 23754U 95073A   16238.99147818 -.00000268  00000-0  00000+0 0  9998","TLE_LINE2":"2 23754   0.1914  92.1924 0003228  95.8870  66.2512  1.00270103 75522","LAUNCH_DATE":"1995-12-28","LAUNCH_SITE":"Xichang Space Center, China","OWNER":"UNITED STATES OF AMERICA","ORBIT_TYPE":"Geosynchronous","OPERATIONAL_STATUS":"Operational","satInfo":{"lng":-95.73347918411838,"lat":0.08728132214130511,"elevation":-8.488057956921777,"azimuth":50.73347918411833,"range":42634.23170880954,"height":35789.155902214916,"velocity":3.0749683798721175},"x":-356,"y":36,"dx":-3,"dy":31},{"OBJECT_ID":"1996-021A","OBJECT_NAME":"ASTRA 1F","NORAD_CAT_ID":"23842","OBJECT_TYPE":"PAYLOAD","PERIOD":"1436.129","INCLINATION":"0.1111","APOGEE":"35803.378","PERIGEE":"35771.088","ECCENTRICITY":"0.0003829","MEAN_MOTION":"1.00269515","TLE_LINE1":"1 23842U 96021A   16239.08104855  .00000111  00000-0  00000+0 0  9991","TLE_LINE2":"2 23842   0.1111 291.4336 0003829 228.8637 247.9319  1.00269515 74411","LAUNCH_DATE":"1996-04-08","LAUNCH_SITE":"TYURATAM MISSILE AND SPACE COMPLEX","OWNER":"SOCIÉTÉ EUROPÉENNE DES SATELLITES","ORBIT_TYPE":"Geosynchronous","OPERATIONAL_STATUS":"Operational","satInfo":{"lng":99.62780559605189,"lat":0.2211865402923877,"elevation":-8.359825459193317,"azimuth":215.3721944039481,"range":42606.658716152655,"height":35776.11930774753,"velocity":3.075051912650033},"x":353,"y":60,"dx":-5,"dy":-30},{"OBJECT_ID":"1996-054A","OBJECT_NAME":"AMC-1 (GE-1)","NORAD_CAT_ID":"24315","OBJECT_TYPE":"PAYLOAD","PERIOD":"1436.073","INCLINATION":"0.9541","APOGEE":"35797.333","PERIGEE":"35774.952","ECCENTRICITY":"0.0002654","MEAN_MOTION":"1.00273403","TLE_LINE1":"1 24315U 96054A   16239.42792717  .00000030  00000-0  00000+0 0  9991","TLE_LINE2":"2 24315   0.9541  86.5770 0002654  79.0417 194.3824  1.00273403 73117","LAUNCH_DATE":"1996-09-08","LAUNCH_SITE":"AIR FORCE EASTERN TEST RANGE","OWNER":"SOCIÉTÉ EUROPÉENNE DES SATELLITES","ORBIT_TYPE":"Geosynchronous","OPERATIONAL_STATUS":"Operational","satInfo":{"lng":-110.56866500132604,"lat":0.628691783143864,"elevation":-7.963272878213068,"azimuth":65.56866500132598,"range":42552.54047205378,"height":35766.60712095275,"velocity":3.0756805997130297},"x":-335,"y":126,"dx":-11,"dy":29},{"OBJECT_ID":"1997-026A","OBJECT_NAME":"GALAXY 25 (TELSTAR 5)","NORAD_CAT_ID":"24812","OBJECT_TYPE":"PAYLOAD","PERIOD":"1436.071","INCLINATION":"0.0213","APOGEE":"35798.948","PERIGEE":"35773.270","ECCENTRICITY":"0.0003045","MEAN_MOTION":"1.00273525","TLE_LINE1":"1 24812U 97026A   16237.33351853 -.00000187  00000-0  00000+0 0  9997","TLE_LINE2":"2 24812   0.0213  89.3493 0003045  60.9767 209.6875  1.00273525 70423","LAUNCH_DATE":"1997-05-24","LAUNCH_SITE":"TYURATAM MISSILE AND SPACE COMPLEX","OWNER":"UNITED STATES OF AMERICA","ORBIT_TYPE":"Geosynchronous","OPERATIONAL_STATUS":"Operational","satInfo":{"lng":-103.00513532475517,"lat":0.261883827901486,"elevation":-8.317493031218403,"azimuth":58.005135324755145,"range":42614.793998132656,"height":35788.86052872784,"velocity":3.0747329993042856},"x":-349,"y":81,"dx":-7,"dy":30},{"OBJECT_ID":"1997-050A","OBJECT_NAME":"AMC-3 (GE-3)","NORAD_CAT_ID":"24936","OBJECT_TYPE":"PAYLOAD","PERIOD":"1436.118","INCLINATION":"0.0598","APOGEE":"35794.614","PERIGEE":"35779.417","ECCENTRICITY":"0.0001802","MEAN_MOTION":"1.0027029","TLE_LINE1":"1 24936U 97050A   16238.88624978 -.00000300 +00000-0 +00000-0 0  9991","TLE_LINE2":"2 24936 000.0598 285.1641 0001802 275.0087 026.4477 01.00270290016520","LAUNCH_DATE":"1997-09-04","LAUNCH_SITE":"AIR FORCE EASTERN TEST RANGE","OWNER":"SOCIÉTÉ EUROPÉENNE DES SATELLITES","ORBIT_TYPE":"Geosynchronous","OPERATIONAL_STATUS":"Operational","satInfo":{"lng":-82.29492833244792,"lat":-0.06334948341576081,"elevation":-8.634012534485404,"azimuth":37.294928332447924,"range":42656.58960986829,"height":35795.06991784746,"velocity":3.0745872017955267},"x":-355,"y":-48,"dx":4,"dy":30},{"OBJECT_ID":"1997-059A","OBJECT_NAME":"ECHOSTAR 3","NORAD_CAT_ID":"25004","OBJECT_TYPE":"PAYLOAD","PERIOD":"1436.109","INCLINATION":"1.5438","APOGEE":"35790.520","PERIGEE":"35783.183","ECCENTRICITY":"8.7e-05","MEAN_MOTION":"1.00270876","TLE_LINE1":"1 25004U 97059A   16238.47130068 -.00000309  00000-0  00000+0 0  9992","TLE_LINE2":"2 25004   1.5438  81.5206 0000870  93.0967 267.4088  1.00270876 69220","LAUNCH_DATE":"1997-10-05","LAUNCH_SITE":"AIR FORCE EASTERN TEST RANGE","OWNER":"UNITED STATES OF AMERICA","ORBIT_TYPE":"Geosynchronous","OPERATIONAL_STATUS":"Operational","satInfo":{"lng":-73.01110879508585,"lat":-2.0075845741507434,"elevation":-10.527471526278735,"azimuth":28.01110879508579,"range":42872.83450675124,"height":35798.89916656305,"velocity":3.0742636264297722},"x":-342,"y":-105,"dx":9,"dy":29}]